start=new Date('2021-12-02T00:00:00.000Z').valueOf();
sats=[{"MEAN_MOTION_DDOT":"0.0000000000000","MEAN_ANOMALY":"305.5289","EPOCH":"2021-12-01T06:17:48.024096","TLE_LINE2":"2 45411  53.0550 297.1563 0001905  54.5878 305.5289 15.06389918 94847","REF_FRAME":"TEME","MEAN_MOTION_DOT":"-0.00001491","ARG_OF_PERICENTER":"54.5878","ECCENTRICITY":"0.00019050","BSTAR":"-0.00008123700000","RA_OF_ASC_NODE":"297.1563","ELEMENT_SET_NO":"999","COUNTRY_CODE":"US","TLE_LINE1":"1 45411U 20019BD  21335.26236139 -.00001491  00000-0 -81237-4 0  9995","SITE":"AFETR","MEAN_MOTION":"15.06389918","NORAD_CAT_ID":"45411","INCLINATION":"53.0550","CLASSIFICATION_TYPE":"U","TIME_SYSTEM":"UTC","LAUNCH_DATE":"2020-03-18","CENTER_NAME":"EARTH","EPHEMERIS_TYPE":"0","APOAPSIS":"548.564","MEAN_ELEMENT_THEORY":"SGP4","OBJECT_TYPE":"PAYLOAD","OBJECT_NAME":"STARLINK-1293","OBJECT_ID":"2020-019BD","PERIAPSIS":"545.925","GP_ID":"190857668","FILE":"3229140","DECAY_DATE":null,"SEMIMAJOR_AXIS":"6925.379","PERIOD":"95.593","REV_AT_EPOCH":"9484","RCS_SIZE":"LARGE"},{"RA_OF_ASC_NODE":"297.0206","ELEMENT_SET_NO":"999","COUNTRY_CODE":"US","TLE_LINE1":"1 45412U 20019BE  21335.29553319 -.00001085  00000-0 -53983-4 0  9997","SITE":"AFETR","ECCENTRICITY":"0.00017980","ARG_OF_PERICENTER":"58.0503","BSTAR":"-0.00005398300000","TLE_LINE2":"2 45412  53.0557 297.0206 0001798  58.0503 302.0661 15.06392639 94820","EPOCH":"2021-12-01T07:05:34.067616","REF_FRAME":"TEME","MEAN_MOTION_DOT":"-0.00001085","MEAN_MOTION_DDOT":"0.0000000000000","MEAN_ANOMALY":"302.0661","PERIAPSIS":"545.991","GP_ID":"190857918","DECAY_DATE":null,"FILE":"3229140","PERIOD":"95.593","SEMIMAJOR_AXIS":"6925.371","RCS_SIZE":"LARGE","REV_AT_EPOCH":"9482","MEAN_ELEMENT_THEORY":"SGP4","APOAPSIS":"548.481","OBJECT_TYPE":"PAYLOAD","OBJECT_NAME":"STARLINK-1296","OBJECT_ID":"2020-019BE","CLASSIFICATION_TYPE":"U","TIME_SYSTEM":"UTC","LAUNCH_DATE":"2020-03-18","CENTER_NAME":"EARTH","EPHEMERIS_TYPE":"0","MEAN_MOTION":"15.06392639","NORAD_CAT_ID":"45412","INCLINATION":"53.0557"},{"MEAN_MOTION":"15.06392910","NORAD_CAT_ID":"45413","INCLINATION":"53.0540","TIME_SYSTEM":"UTC","CLASSIFICATION_TYPE":"U","LAUNCH_DATE":"2020-03-18","CENTER_NAME":"EARTH","EPHEMERIS_TYPE":"0","APOAPSIS":"548.609","MEAN_ELEMENT_THEORY":"SGP4","OBJECT_TYPE":"PAYLOAD","OBJECT_NAME":"STARLINK-1298","OBJECT_ID":"2020-019BF","PERIAPSIS":"545.861","GP_ID":"190858669","SEMIMAJOR_AXIS":"6925.370","FILE":"3229140","DECAY_DATE":null,"PERIOD":"95.593","RCS_SIZE":"LARGE","REV_AT_EPOCH":"9492","MEAN_MOTION_DDOT":"0.0000000000000","MEAN_ANOMALY":"303.2368","EPOCH":"2021-12-01T07:48:01.589760","TLE_LINE2":"2 45413  53.0540 296.8892 0001984  56.8811 303.2368 15.06392910 94926","REF_FRAME":"TEME","MEAN_MOTION_DOT":"0.00000919","ARG_OF_PERICENTER":"56.8811","ECCENTRICITY":"0.00019840","BSTAR":"0.00008061900000","RA_OF_ASC_NODE":"296.8892","ELEMENT_SET_NO":"999","COUNTRY_CODE":"US","TLE_LINE1":"1 45413U 20019BF  21335.32501840  .00000919  00000-0  80619-4 0  9993","SITE":"AFETR"},{"CENTER_NAME":"EARTH","LAUNCH_DATE":"2020-03-18","CLASSIFICATION_TYPE":"U","TIME_SYSTEM":"UTC","EPHEMERIS_TYPE":"0","NORAD_CAT_ID":"45414","MEAN_MOTION":"15.06400492","INCLINATION":"53.0533","GP_ID":"190858920","PERIAPSIS":"545.856","REV_AT_EPOCH":"9481","RCS_SIZE":"LARGE","FILE":"3229140","DECAY_DATE":null,"PERIOD":"95.592","SEMIMAJOR_AXIS":"6925.347","OBJECT_NAME":"STARLINK-1309","OBJECT_TYPE":"PAYLOAD","APOAPSIS":"548.568","MEAN_ELEMENT_THEORY":"SGP4","OBJECT_ID":"2020-019BG","REF_FRAME":"TEME","TLE_LINE2":"2 45414  53.0533 296.9544 0001958  57.2569 302.8609 15.06400492 94816","EPOCH":"2021-12-01T07:26:47.174208","MEAN_MOTION_DOT":"0.00000218","MEAN_ANOMALY":"302.8609","MEAN_MOTION_DDOT":"0.0000000000000","ELEMENT_SET_NO":"999","RA_OF_ASC_NODE":"296.9544","SITE":"AFETR","TLE_LINE1":"1 45414U 20019BG  21335.31026822  .00000218  00000-0  33565-4 0  9995","COUNTRY_CODE":"US","ARG_OF_PERICENTER":"57.2569","ECCENTRICITY":"0.00019580","BSTAR":"0.00003356500000"},{"INCLINATION":"53.0541","MEAN_MOTION":"15.06394476","NORAD_CAT_ID":"45415","EPHEMERIS_TYPE":"0","LAUNCH_DATE":"2020-03-18","TIME_SYSTEM":"UTC","CLASSIFICATION_TYPE":"U","CENTER_NAME":"EARTH","OBJECT_ID":"2020-019BH","OBJECT_TYPE":"PAYLOAD","MEAN_ELEMENT_THEORY":"SGP4","APOAPSIS":"548.664","OBJECT_NAME":"STARLINK-1316","RCS_SIZE":"LARGE","REV_AT_EPOCH":"9484","FILE":"3229140","PERIOD":"95.592","DECAY_DATE":null,"SEMIMAJOR_AXIS":"6925.365","PERIAPSIS":"545.797","GP_ID":"190858168","MEAN_MOTION_DDOT":"0.0000000000000","MEAN_ANOMALY":"300.7537","MEAN_MOTION_DOT":"-0.00000916","TLE_LINE2":"2 45415  53.0541 297.1202 0002070  59.3656 300.7537 15.06394476 94840","EPOCH":"2021-12-01T06:28:24.826656","REF_FRAME":"TEME","BSTAR":"-0.00004261300000","ECCENTRICITY":"0.00020700","ARG_OF_PERICENTER":"59.3656","TLE_LINE1":"1 45415U 20019BH  21335.26973179 -.00000916  00000-0 -42613-4 0  9997","COUNTRY_CODE":"US","SITE":"AFETR","ELEMENT_SET_NO":"999","RA_OF_ASC_NODE":"297.1202"},{"BSTAR":"0.00003591000000","ARG_OF_PERICENTER":"59.6885","ECCENTRICITY":"0.00021890","SITE":"AFETR","TLE_LINE1":"1 45416U 20019BJ  21335.30288936  .00000253  00000-0  35910-4 0  9997","COUNTRY_CODE":"US","RA_OF_ASC_NODE":"296.9872","ELEMENT_SET_NO":"999","MEAN_ANOMALY":"300.4320","MEAN_MOTION_DDOT":"0.0000000000000","MEAN_MOTION_DOT":"0.00000253","REF_FRAME":"TEME","TLE_LINE2":"2 45416  53.0556 296.9872 0002189  59.6885 300.4320 15.06408377 94837","EPOCH":"2021-12-01T07:16:09.640704","OBJECT_ID":"2020-019BJ","OBJECT_NAME":"STARLINK-1318","OBJECT_TYPE":"PAYLOAD","APOAPSIS":"548.704","MEAN_ELEMENT_THEORY":"SGP4","REV_AT_EPOCH":"9483","RCS_SIZE":"LARGE","FILE":"3229140","DECAY_DATE":null,"PERIOD":"95.592","SEMIMAJOR_AXIS":"6925.323","GP_ID":"190858418","PERIAPSIS":"545.672","INCLINATION":"53.0556","MEAN_MOTION":"15.06408377","NORAD_CAT_ID":"45416","EPHEMERIS_TYPE":"0","CENTER_NAME":"EARTH","LAUNCH_DATE":"2020-03-18","CLASSIFICATION_TYPE":"U","TIME_SYSTEM":"UTC"},{"EPOCH":"2021-12-01T08:58:21.499680","TLE_LINE2":"2 45417  53.0557 326.6725 0001590  62.6922 297.4229 15.06398100 94697","REF_FRAME":"TEME","MEAN_MOTION_DOT":"0.00000753","MEAN_MOTION_DDOT":"0.0000000000000","MEAN_ANOMALY":"297.4229","ELEMENT_SET_NO":"999","RA_OF_ASC_NODE":"326.6725","TLE_LINE1":"1 45417U 20019BK  21335.37385995  .00000753  00000-0  69465-4 0  9995","COUNTRY_CODE":"US","SITE":"AFETR","ARG_OF_PERICENTER":"62.6922","ECCENTRICITY":"0.00015900","BSTAR":"0.00006946500000","LAUNCH_DATE":"2020-03-18","CLASSIFICATION_TYPE":"U","TIME_SYSTEM":"UTC","CENTER_NAME":"EARTH","EPHEMERIS_TYPE":"0","MEAN_MOTION":"15.06398100","NORAD_CAT_ID":"45417","INCLINATION":"53.0557","PERIAPSIS":"546.118","GP_ID":"190859169","REV_AT_EPOCH":"9469","RCS_SIZE":"LARGE","DECAY_DATE":null,"FILE":"3229140","SEMIMAJOR_AXIS":"6925.354","PERIOD":"95.592","OBJECT_TYPE":"PAYLOAD","APOAPSIS":"548.321","MEAN_ELEMENT_THEORY":"SGP4","OBJECT_NAME":"STARLINK-1286","OBJECT_ID":"2020-019BK"},{"MEAN_MOTION_DDOT":"0.0000000000000","MEAN_ANOMALY":"286.4899","TLE_LINE2":"2 45418  53.0018 345.3760 0001110  73.6209 286.4899 15.01576089 94145","EPOCH":"2021-12-01T07:38:48.140736","REF_FRAME":"TEME","MEAN_MOTION_DOT":"0.00004973","ARG_OF_PERICENTER":"73.6209","ECCENTRICITY":"0.00011100","BSTAR":"0.00039995000000","RA_OF_ASC_NODE":"345.3760","ELEMENT_SET_NO":"999","COUNTRY_CODE":"US","TLE_LINE1":"1 45418U 20019BL  21335.31861274  .00004973  00000-0  39995-3 0  9991","SITE":"AFETR","MEAN_MOTION":"15.01576089","NORAD_CAT_ID":"45418","INCLINATION":"53.0018","TIME_SYSTEM":"UTC","CLASSIFICATION_TYPE":"U","LAUNCH_DATE":"2020-03-18","CENTER_NAME":"EARTH","EPHEMERIS_TYPE":"0","APOAPSIS":"562.808","MEAN_ELEMENT_THEORY":"SGP4","OBJECT_TYPE":"PAYLOAD","OBJECT_NAME":"STARLINK-1299","OBJECT_ID":"2020-019BL","PERIAPSIS":"561.267","GP_ID":"190859420","SEMIMAJOR_AXIS":"6940.173","FILE":"3229140","DECAY_DATE":null,"PERIOD":"95.899","RCS_SIZE":"LARGE","REV_AT_EPOCH":"9414"},{"MEAN_MOTION_DOT":"0.00000603","TLE_LINE2":"2 45419  53.0529 326.6741 0001497  59.7918 300.3219 15.06404878 94440","EPOCH":"2021-12-01T08:53:02.351904","REF_FRAME":"TEME","MEAN_MOTION_DDOT":"0.0000000000000","MEAN_ANOMALY":"300.3219","COUNTRY_CODE":"US","TLE_LINE1":"1 45419U 20019BM  21335.37016611  .00000603  00000-0  59396-4 0  9999","SITE":"AFETR","ELEMENT_SET_NO":"999","RA_OF_ASC_NODE":"326.6741","BSTAR":"0.00005939600000","ARG_OF_PERICENTER":"59.7918","ECCENTRICITY":"0.00014970","EPHEMERIS_TYPE":"0","CLASSIFICATION_TYPE":"U","TIME_SYSTEM":"UTC","LAUNCH_DATE":"2020-03-18","CENTER_NAME":"EARTH","INCLINATION":"53.0529","MEAN_MOTION":"15.06404878","NORAD_CAT_ID":"45419","FILE":"3229140","DECAY_DATE":null,"SEMIMAJOR_AXIS":"6925.334","PERIOD":"95.592","REV_AT_EPOCH":"9444","RCS_SIZE":"LARGE","PERIAPSIS":"546.162","GP_ID":"190857669","OBJECT_ID":"2020-019BM","APOAPSIS":"548.235","MEAN_ELEMENT_THEORY":"SGP4","OBJECT_TYPE":"PAYLOAD","OBJECT_NAME":"STARLINK-1308"},{"LAUNCH_DATE":"2020-04-22","CLASSIFICATION_TYPE":"U","TIME_SYSTEM":"UTC","CENTER_NAME":"EARTH","EPHEMERIS_TYPE":"0","NORAD_CAT_ID":"45531","MEAN_MOTION":"15.06391814","INCLINATION":"53.0544","PERIAPSIS":"546.002","GP_ID":"190858430","RCS_SIZE":"LARGE","REV_AT_EPOCH":"9009","FILE":"3229140","DECAY_DATE":null,"PERIOD":"95.593","SEMIMAJOR_AXIS":"6925.374","OBJECT_TYPE":"PAYLOAD","MEAN_ELEMENT_THEORY":"SGP4","APOAPSIS":"548.476","OBJECT_NAME":"STARLINK-1329","OBJECT_ID":"2020-025A","EPOCH":"2021-12-01T12:54:33.065280","TLE_LINE2":"2 45531  53.0544 265.9129 0001786  62.0209 298.0961 15.06391814 90097","REF_FRAME":"TEME","MEAN_MOTION_DOT":"0.00000890","MEAN_MOTION_DDOT":"0.0000000000000","MEAN_ANOMALY":"298.0961","RA_OF_ASC_NODE":"265.9129","ELEMENT_SET_NO":"999","TLE_LINE1":"1 45531U 20025A   21335.53788270  .00000890  00000-0  78648-4 0  9995","COUNTRY_CODE":"US","SITE":"AFETR","ARG_OF_PERICENTER":"62.0209","ECCENTRICITY":"0.00017860","BSTAR":"0.00007864800000"}];
